     2.100          NAVIGATION                              RINEX VERSION / TYPE
fic2rin                                 11/11/2015 00:06:21 PGM / RUN BY / DATE
                                                            END OF HEADER
 3 15 11 10 14  0  0.0  .147917307913D-04 -.318323145621D-11  .000000000000D+00
     .540000000000D+02 -.234062500000D+02  .453697469749D-08 -.173995180343D+01
    -.125542283058D-05  .423888559453D-03  .100024044514D-04  .515356843758D+04
     .223200000000D+06  .670552253723D-07  .239039634309D+01  .167638063431D-07
     .959271360657D+00  .183750000000D+03 -.291741393434D+01 -.796176021070D-08
    -.603953728526D-09  .100000000000D+01  .187000000000D+04  .000000000000D+00
     .240000000000D+01  .000000000000D+00  .186264514923D-08  .540000000000D+02
     .216006000000D+06  .400000000000D+01
 5 15 11 10 14  0  0.0 -.176140107214D-03  .386535248253D-11  .000000000000D+00
     .330000000000D+02 -.379062500000D+02  .481698636110D-08 -.110017582939D+01
    -.196509063244D-05  .452771247365D-02  .964477658272D-05  .515367684937D+04
     .223200000000D+06  .102445483208D-06  .238116482091D+01 -.596046447754D-07
     .946413053903D+00  .185968750000D+03  .462012432878D+00 -.811712382507D-08
    -.625383192577D-09  .100000000000D+01  .187000000000D+04  .000000000000D+00
     .240000000000D+01  .000000000000D+00 -.107102096081D-07  .330000000000D+02
     .216006000000D+06  .400000000000D+01
 6 15 11 10 14  0  0.0  .926270149648D-04  .670752342558D-11  .000000000000D+00
     .410000000000D+02  .525000000000D+01  .504199573365D-08 -.174955329759D+01
     .391155481339D-06  .221506808884D-03  .433996319771D-05  .515356614304D+04
     .223200000000D+06  .558793544769D-08  .134064938747D+01 -.428408384323D-07
     .962508875901D+00  .294687500000D+03  .283551282702D+01 -.831070331701D-08
     .525021869268D-10  .100000000000D+01  .187000000000D+04  .000000000000D+00
     .240000000000D+01  .000000000000D+00  .419095158577D-08  .410000000000D+02
     .216006000000D+06  .400000000000D+01
 7 15 11 10 14  0  0.0  .480727758259D-03 -.102318153949D-11  .000000000000D+00
     .450000000000D+02  .113437500000D+02  .471376777592D-08  .151928711435D+01
     .637024641037D-06  .900423573330D-02  .156462192535D-05  .515368588448D+04
     .223200000000D+06 -.124797224998D-06 -.177435251809D+01  .856816768646D-07
     .968282946266D+00  .355250000000D+03 -.268252757493D+01 -.849928260066D-08
    -.671456540289D-10  .100000000000D+01  .187000000000D+04  .000000000000D+00
     .240000000000D+01  .000000000000D+00 -.111758708954D-07  .450000000000D+02
     .216006000000D+06  .400000000000D+01
 8 15 11 10 14  0  0.0 -.119684264064D-04 -.147792889038D-11  .000000000000D+00
     .560000000000D+02  .229375000000D+02  .444197074020D-08 -.495902998750D+00
     .108405947685D-05  .151170114987D-02  .109933316708D-04  .515360239410D+04
     .223200000000D+06 -.372529029846D-07  .290557423112D+00  .484287738800D-07
     .961366133535D+00  .170812500000D+03 -.169088154021D+01 -.790425781549D-08
     .562523431359D-09  .100000000000D+01  .187000000000D+04  .000000000000D+00
     .240000000000D+01  .000000000000D+00  .465661287308D-08  .560000000000D+02
     .216006000000D+06  .400000000000D+01
 9 15 11 10 14  0  0.0  .834558159113D-05  .557065504836D-11  .000000000000D+00
     .420000000000D+02  .111906250000D+03  .443625621645D-08 -.223429441426D+01
     .565126538277D-05  .388077693060D-03  .970065593719D-05  .515370450211D+04
     .223200000000D+06 -.186264514923D-08 -.285183047713D+01  .279396772385D-07
     .956728504748D+00  .190093750000D+03  .217592118141D+01 -.804247785863D-08
     .164649715464D-09  .100000000000D+01  .187000000000D+04  .000000000000D+00
     .240000000000D+01  .000000000000D+00  .931322574615D-09  .420000000000D+02
     .216006000000D+06  .400000000000D+01
10 15 11 10 14  0  0.0  .933278352022D-05  .184172677109D-10  .000000000000D+00
     .130000000000D+03 -.361250000000D+02  .438196824085D-08  .311693472171D+01
    -.197626650333D-05  .801937421784D-03  .101290643215D-04  .518128684616D+04
     .223200000000D+06  .000000000000D+00  .238585864770D+01 -.279396772385D-07
     .959563874053D+00  .174500000000D+03 -.291519592525D+01 -.766067624077D-08
    -.683242745517D-09  .100000000000D+01  .187000000000D+04  .000000000000D+00
     .485000000000D+01  .630000000000D+02  .325962901115D-08  .130000000000D+03
     .216006000000D+06  .400000000000D+01
11 15 11 10 14  0  0.0 -.615358352661D-03 -.216004991671D-11  .000000000000D+00
     .290000000000D+02  .345312500000D+02  .655955894625D-08  .161791152581D+01
     .148266553879D-05  .163031206466D-01  .487640500069D-05  .515362796402D+04
     .223200000000D+06 -.931322574615D-08  .986172310218D+00 -.447034835815D-06
     .894376127407D+00  .249218750000D+03  .147889786846D+01 -.901501836884D-08
     .426446334630D-09  .100000000000D+01  .187000000000D+04  .000000000000D+00
     .240000000000D+01  .000000000000D+00 -.121071934700D-07  .290000000000D+02
     .216006000000D+06  .400000000000D+01
12 15 11 10 14  0  0.0  .344244763255D-03  .318323145621D-11  .000000000000D+00
     .106000000000D+03 -.107968750000D+03  .374265589664D-08  .108787471595D+01
    -.580027699471D-05  .553467485588D-02  .846758484840D-05  .515358119392D+04
     .223200000000D+06 -.614672899246D-07 -.701941934653D+00  .335276126862D-07
     .990298505771D+00  .232750000000D+03  .642648006995D+00 -.774175104643D-08
    -.286797660559D-09  .100000000000D+01  .187000000000D+04  .000000000000D+00
     .240000000000D+01  .000000000000D+00 -.125728547573D-07  .106000000000D+03
     .216006000000D+06  .400000000000D+01
13 15 11 10 14  0  0.0 -.163251534104D-03 -.284217094304D-11  .000000000000D+00
     .630000000000D+02  .112562500000D+03  .397195116199D-08  .242226958443D+01
     .591576099396D-05  .464356073644D-02  .911578536034D-05  .515369272041D+04
     .223200000000D+06  .298023223877D-07 -.273419692424D+01  .428408384323D-07
     .973244459264D+00  .209312500000D+03  .203563461270D+01 -.776853787650D-08
     .241438628317D-09  .100000000000D+01  .187000000000D+04  .000000000000D+00
     .240000000000D+01  .000000000000D+00 -.111758708954D-07  .630000000000D+02
     .216006000000D+06  .400000000000D+01
14 15 11 10 14  0  0.0  .225794501603D-04 -.238742359215D-11  .000000000000D+00
     .670000000000D+02  .108843750000D+03  .414517266308D-08 -.197459427391D+01
     .566057860851D-05  .838425953407D-02  .875256955624D-05  .515368888092D+04
     .223200000000D+06  .171363353729D-06 -.276991659122D+01 -.521540641785D-07
     .965753173233D+00  .216125000000D+03 -.194683910747D+01 -.778532429001D-08
     .213937482783D-09  .100000000000D+01  .187000000000D+04  .000000000000D+00
     .240000000000D+01  .000000000000D+00 -.931322574615D-08  .670000000000D+02
     .216006000000D+06  .400000000000D+01
15 15 11 10 14  0  0.0 -.281424261630D-03 -.193267624127D-11  .000000000000D+00
     .560000000000D+02  .979375000000D+02  .486270255108D-08 -.269166830256D+01
     .502727925777D-05  .772977352608D-02  .102445483208D-04  .515375540161D+04
     .223200000000D+06 -.279396772385D-07 -.289949685833D+01 -.104308128357D-06
     .932545282471D+00  .167906250000D+03  .428371929445D+00 -.812390982202D-08
     .184293390845D-09  .100000000000D+01  .187000000000D+04  .000000000000D+00
     .240000000000D+01  .000000000000D+00 -.107102096081D-07  .560000000000D+02
     .216006000000D+06  .400000000000D+01
16 15 11 10 14  0  0.0 -.679041258991D-04  .363797880709D-11  .000000000000D+00
     .910000000000D+02 -.961875000000D+02  .369586823346D-08 -.942604795799D+00
    -.506080687046D-05  .816801656038D-02  .911392271519D-05  .515365494156D+04
     .223200000000D+06  .165775418282D-06 -.683217342493D+00 -.614672899246D-07
     .990841581923D+00  .214250000000D+03  .316736364084D+00 -.768567728217D-08
    -.192150860997D-09  .100000000000D+01  .187000000000D+04  .000000000000D+00
     .240000000000D+01  .000000000000D+00 -.102445483208D-07  .910000000000D+02
     .216006000000D+06  .400000000000D+01
17 15 11 10 14  0  0.0 -.193588901311D-03 -.113686837722D-11  .000000000000D+00
     .300000000000D+02  .173437500000D+02  .414052961254D-08 -.191667925919D+01
     .953674316406D-06  .106223410694D-01  .105760991573D-04  .515359282494D+04
     .223200000000D+06  .199303030968D-06  .340401508552D+00  .186264514923D-07
     .974496971688D+00  .179250000000D+03 -.199856395843D+01 -.757710133097D-08
     .650027076237D-09  .100000000000D+01  .187000000000D+04  .000000000000D+00
     .240000000000D+01  .000000000000D+00 -.107102096081D-07  .300000000000D+02
     .216006000000D+06  .400000000000D+01
18 15 11 10 14  0  0.0  .451557338238D-03  .375166564481D-11  .000000000000D+00
     .940000000000D+02 -.330000000000D+02  .551058668091D-08 -.379193563894D+00
    -.168383121490D-05  .163720665732D-01  .929087400436D-05  .515364374161D+04
     .223200000000D+06 -.150874257088D-06  .236440842850D+01  .163912773132D-06
     .924999587591D+00  .184656250000D+03 -.192970492231D+01 -.877679416013D-08
    -.582881422208D-09  .100000000000D+01  .187000000000D+04  .000000000000D+00
     .240000000000D+01  .000000000000D+00 -.111758708954D-07  .940000000000D+02
     .216006000000D+06  .400000000000D+01
19 15 11 10 14  0  0.0 -.522597227246D-03 -.454747350886D-12  .000000000000D+00
     .110000000000D+02  .227812500000D+02  .427660670926D-08  .244956428863D+01
     .113435089588D-05  .113214699086D-01  .107940286398D-04  .515516388321D+04
     .223200000000D+06 -.128522515297D-06  .389542024023D+00 -.152736902237D-06
     .971528909862D+00  .176687500000D+03  .658610745873D+00 -.764424698500D-08
     .621097299767D-09  .100000000000D+01  .187000000000D+04  .000000000000D+00
     .240000000000D+01  .000000000000D+00 -.149011611938D-07  .110000000000D+02
     .216006000000D+06  .400000000000D+01
